IRIDIUM 921 [-]         
1 24873U 97034E   23316.46454328  .00016245  00000+0  59848-3 0  9992
2 24873  86.3905  34.7455 0005032  21.3817 338.7639 15.27701076441832
IRIDIUM 26 [-]          
1 24903U 97043A   23316.60720398  .00000553  00000+0  18347-3 0  9999
2 24903  86.3980 355.0589 0002050  97.4839 262.6591 14.36078292373103
IRIDIUM 22 [-]          
1 24907U 97043E   23316.56543601  .00000561  00000+0  19041-3 0  9999
2 24907  86.3988 358.1393 0002150  91.4214 268.7228 14.34985345373191
DUMMY MASS 1 [-]        
1 24925U 97048A   23316.29382242  .00000689  00000+0  75819-4 0  9993
2 24925  86.3379  44.6227 0008828  61.3126 298.8984 14.85923236418543
DUMMY MASS 2 [-]        
1 24926U 97048B   23316.49728382  .00000681  00000+0  75277-4 0  9995
2 24926  86.3377  46.0334 0009800  68.3373 291.8894 14.85684587418365
IRIDIUM 29 [-]          
1 24944U 97051A   23316.56751857  .00000527  00000+0  17662-3 0  9992
2 24944  86.4001  28.0977 0002145  86.7458 273.3984 14.35439661369665
IRIDIUM 33 [-]          
1 24946U 97051C   23316.60553308  .00000435  00000+0  14846-3 0  9999
2 24946  86.3915  27.3541 0008335 164.5645 195.5806 14.34175250369229
IRIDIUM 28 [-]          
1 24948U 97051E   23316.57544067  .00000631  00000+0  20891-3 0  9994
2 24948  86.4006  25.9461 0002077 105.4672 254.6755 14.36384606370185
