<?xml version="1.0" encoding="UTF-8"?>
<ndm xmlns:xsi="http://www.w3.org/2001/XMLSchema-instance" xsi:noNamespaceSchemaLocation="https://sanaregistry.org/r/ndmxml_unqualified/ndmxml-2.0.0-master-2.0.xsd">
<omm id="CCSDS_OMM_VERS" version="2.0">
<header><CREATION_DATE/><ORIGINATOR/></header><body><segment><metadata><OBJECT_NAME>IRIDIUM 921 [-]</OBJECT_NAME><OBJECT_ID>1997-034E</OBJECT_ID><CENTER_NAME>EARTH</CENTER_NAME><REF_FRAME>TEME</REF_FRAME><TIME_SYSTEM>UTC</TIME_SYSTEM><MEAN_ELEMENT_THEORY>SGP4</MEAN_ELEMENT_THEORY></metadata><data><meanElements><EPOCH>2023-11-12T11:08:56.539392</EPOCH><MEAN_MOTION>15.27701076</MEAN_MOTION><ECCENTRICITY>.0005032</ECCENTRICITY><INCLINATION>86.3905</INCLINATION><RA_OF_ASC_NODE>34.7455</RA_OF_ASC_NODE><ARG_OF_PERICENTER>21.3817</ARG_OF_PERICENTER><MEAN_ANOMALY>338.7639</MEAN_ANOMALY></meanElements><tleParameters><EPHEMERIS_TYPE>0</EPHEMERIS_TYPE><CLASSIFICATION_TYPE>U</CLASSIFICATION_TYPE><NORAD_CAT_ID>24873</NORAD_CAT_ID><ELEMENT_SET_NO>999</ELEMENT_SET_NO><REV_AT_EPOCH>44183</REV_AT_EPOCH><BSTAR>.59848E-3</BSTAR><MEAN_MOTION_DOT>.16245E-3</MEAN_MOTION_DOT><MEAN_MOTION_DDOT>0</MEAN_MOTION_DDOT></tleParameters></data></segment></body></omm>
<omm id="CCSDS_OMM_VERS" version="2.0">
<header><CREATION_DATE/><ORIGINATOR/></header><body><segment><metadata><OBJECT_NAME>IRIDIUM 26 [-]</OBJECT_NAME><OBJECT_ID>1997-043A</OBJECT_ID><CENTER_NAME>EARTH</CENTER_NAME><REF_FRAME>TEME</REF_FRAME><TIME_SYSTEM>UTC</TIME_SYSTEM><MEAN_ELEMENT_THEORY>SGP4</MEAN_ELEMENT_THEORY></metadata><data><meanElements><EPOCH>2023-11-12T14:34:22.423872</EPOCH><MEAN_MOTION>14.36078292</MEAN_MOTION><ECCENTRICITY>.000205</ECCENTRICITY><INCLINATION>86.3980</INCLINATION><RA_OF_ASC_NODE>355.0589</RA_OF_ASC_NODE><ARG_OF_PERICENTER>97.4839</ARG_OF_PERICENTER><MEAN_ANOMALY>262.6591</MEAN_ANOMALY></meanElements><tleParameters><EPHEMERIS_TYPE>0</EPHEMERIS_TYPE><CLASSIFICATION_TYPE>U</CLASSIFICATION_TYPE><NORAD_CAT_ID>24903</NORAD_CAT_ID><ELEMENT_SET_NO>999</ELEMENT_SET_NO><REV_AT_EPOCH>37310</REV_AT_EPOCH><BSTAR>.18347E-3</BSTAR><MEAN_MOTION_DOT>.553E-5</MEAN_MOTION_DOT><MEAN_MOTION_DDOT>0</MEAN_MOTION_DDOT></tleParameters></data></segment></body></omm>
<omm id="CCSDS_OMM_VERS" version="2.0">
<header><CREATION_DATE/><ORIGINATOR/></header><body><segment><metadata><OBJECT_NAME>IRIDIUM 22 [-]</OBJECT_NAME><OBJECT_ID>1997-043E</OBJECT_ID><CENTER_NAME>EARTH</CENTER_NAME><REF_FRAME>TEME</REF_FRAME><TIME_SYSTEM>UTC</TIME_SYSTEM><MEAN_ELEMENT_THEORY>SGP4</MEAN_ELEMENT_THEORY></metadata><data><meanElements><EPOCH>2023-11-12T13:34:13.671264</EPOCH><MEAN_MOTION>14.34985345</MEAN_MOTION><ECCENTRICITY>.000215</ECCENTRICITY><INCLINATION>86.3988</INCLINATION><RA_OF_ASC_NODE>358.1393</RA_OF_ASC_NODE><ARG_OF_PERICENTER>91.4214</ARG_OF_PERICENTER><MEAN_ANOMALY>268.7228</MEAN_ANOMALY></meanElements><tleParameters><EPHEMERIS_TYPE>0</EPHEMERIS_TYPE><CLASSIFICATION_TYPE>U</CLASSIFICATION_TYPE><NORAD_CAT_ID>24907</NORAD_CAT_ID><ELEMENT_SET_NO>999</ELEMENT_SET_NO><REV_AT_EPOCH>37319</REV_AT_EPOCH><BSTAR>.19041E-3</BSTAR><MEAN_MOTION_DOT>.561E-5</MEAN_MOTION_DOT><MEAN_MOTION_DDOT>0</MEAN_MOTION_DDOT></tleParameters></data></segment></body></omm>
<omm id="CCSDS_OMM_VERS" version="2.0">
<header><CREATION_DATE/><ORIGINATOR/></header><body><segment><metadata><OBJECT_NAME>DUMMY MASS 1 [-]</OBJECT_NAME><OBJECT_ID>1997-048A</OBJECT_ID><CENTER_NAME>EARTH</CENTER_NAME><REF_FRAME>TEME</REF_FRAME><TIME_SYSTEM>UTC</TIME_SYSTEM><MEAN_ELEMENT_THEORY>SGP4</MEAN_ELEMENT_THEORY></metadata><data><meanElements><EPOCH>2023-11-12T07:03:06.257088</EPOCH><MEAN_MOTION>14.85923236</MEAN_MOTION><ECCENTRICITY>.0008828</ECCENTRICITY><INCLINATION>86.3379</INCLINATION><RA_OF_ASC_NODE>44.6227</RA_OF_ASC_NODE><ARG_OF_PERICENTER>61.3126</ARG_OF_PERICENTER><MEAN_ANOMALY>298.8984</MEAN_ANOMALY></meanElements><tleParameters><EPHEMERIS_TYPE>0</EPHEMERIS_TYPE><CLASSIFICATION_TYPE>U</CLASSIFICATION_TYPE><NORAD_CAT_ID>24925</NORAD_CAT_ID><ELEMENT_SET_NO>999</ELEMENT_SET_NO><REV_AT_EPOCH>41854</REV_AT_EPOCH><BSTAR>.75819E-4</BSTAR><MEAN_MOTION_DOT>.689E-5</MEAN_MOTION_DOT><MEAN_MOTION_DDOT>0</MEAN_MOTION_DDOT></tleParameters></data></segment></body></omm>
<omm id="CCSDS_OMM_VERS" version="2.0">
<header><CREATION_DATE/><ORIGINATOR/></header><body><segment><metadata><OBJECT_NAME>DUMMY MASS 2 [-]</OBJECT_NAME><OBJECT_ID>1997-048B</OBJECT_ID><CENTER_NAME>EARTH</CENTER_NAME><REF_FRAME>TEME</REF_FRAME><TIME_SYSTEM>UTC</TIME_SYSTEM><MEAN_ELEMENT_THEORY>SGP4</MEAN_ELEMENT_THEORY></metadata><data><meanElements><EPOCH>2023-11-12T11:56:05.322048</EPOCH><MEAN_MOTION>14.85684587</MEAN_MOTION><ECCENTRICITY>.00098</ECCENTRICITY><INCLINATION>86.3377</INCLINATION><RA_OF_ASC_NODE>46.0334</RA_OF_ASC_NODE><ARG_OF_PERICENTER>68.3373</ARG_OF_PERICENTER><MEAN_ANOMALY>291.8894</MEAN_ANOMALY></meanElements><tleParameters><EPHEMERIS_TYPE>0</EPHEMERIS_TYPE><CLASSIFICATION_TYPE>U</CLASSIFICATION_TYPE><NORAD_CAT_ID>24926</NORAD_CAT_ID><ELEMENT_SET_NO>999</ELEMENT_SET_NO><REV_AT_EPOCH>41836</REV_AT_EPOCH><BSTAR>.75277E-4</BSTAR><MEAN_MOTION_DOT>.681E-5</MEAN_MOTION_DOT><MEAN_MOTION_DDOT>0</MEAN_MOTION_DDOT></tleParameters></data></segment></body></omm>
<omm id="CCSDS_OMM_VERS" version="2.0">
<header><CREATION_DATE/><ORIGINATOR/></header><body><segment><metadata><OBJECT_NAME>IRIDIUM 29 [-]</OBJECT_NAME><OBJECT_ID>1997-051A</OBJECT_ID><CENTER_NAME>EARTH</CENTER_NAME><REF_FRAME>TEME</REF_FRAME><TIME_SYSTEM>UTC</TIME_SYSTEM><MEAN_ELEMENT_THEORY>SGP4</MEAN_ELEMENT_THEORY></metadata><data><meanElements><EPOCH>2023-11-12T13:37:13.604448</EPOCH><MEAN_MOTION>14.35439661</MEAN_MOTION><ECCENTRICITY>.0002145</ECCENTRICITY><INCLINATION>86.4001</INCLINATION><RA_OF_ASC_NODE>28.0977</RA_OF_ASC_NODE><ARG_OF_PERICENTER>86.7458</ARG_OF_PERICENTER><MEAN_ANOMALY>273.3984</MEAN_ANOMALY></meanElements><tleParameters><EPHEMERIS_TYPE>0</EPHEMERIS_TYPE><CLASSIFICATION_TYPE>U</CLASSIFICATION_TYPE><NORAD_CAT_ID>24944</NORAD_CAT_ID><ELEMENT_SET_NO>999</ELEMENT_SET_NO><REV_AT_EPOCH>36966</REV_AT_EPOCH><BSTAR>.17662E-3</BSTAR><MEAN_MOTION_DOT>.527E-5</MEAN_MOTION_DOT><MEAN_MOTION_DDOT>0</MEAN_MOTION_DDOT></tleParameters></data></segment></body></omm>
<omm id="CCSDS_OMM_VERS" version="2.0">
<header><CREATION_DATE/><ORIGINATOR/></header><body><segment><metadata><OBJECT_NAME>IRIDIUM 33 [-]</OBJECT_NAME><OBJECT_ID>1997-051C</OBJECT_ID><CENTER_NAME>EARTH</CENTER_NAME><REF_FRAME>TEME</REF_FRAME><TIME_SYSTEM>UTC</TIME_SYSTEM><MEAN_ELEMENT_THEORY>SGP4</MEAN_ELEMENT_THEORY></metadata><data><meanElements><EPOCH>2023-11-12T14:31:58.058112</EPOCH><MEAN_MOTION>14.34175250</MEAN_MOTION><ECCENTRICITY>.0008335</ECCENTRICITY><INCLINATION>86.3915</INCLINATION><RA_OF_ASC_NODE>27.3541</RA_OF_ASC_NODE><ARG_OF_PERICENTER>164.5645</ARG_OF_PERICENTER><MEAN_ANOMALY>195.5806</MEAN_ANOMALY></meanElements><tleParameters><EPHEMERIS_TYPE>0</EPHEMERIS_TYPE><CLASSIFICATION_TYPE>U</CLASSIFICATION_TYPE><NORAD_CAT_ID>24946</NORAD_CAT_ID><ELEMENT_SET_NO>999</ELEMENT_SET_NO><REV_AT_EPOCH>36922</REV_AT_EPOCH><BSTAR>.14846E-3</BSTAR><MEAN_MOTION_DOT>.435E-5</MEAN_MOTION_DOT><MEAN_MOTION_DDOT>0</MEAN_MOTION_DDOT></tleParameters></data></segment></body></omm>
<omm id="CCSDS_OMM_VERS" version="2.0">
<header><CREATION_DATE/><ORIGINATOR/></header><body><segment><metadata><OBJECT_NAME>IRIDIUM 28 [-]</OBJECT_NAME><OBJECT_ID>1997-051E</OBJECT_ID><CENTER_NAME>EARTH</CENTER_NAME><REF_FRAME>TEME</REF_FRAME><TIME_SYSTEM>UTC</TIME_SYSTEM><MEAN_ELEMENT_THEORY>SGP4</MEAN_ELEMENT_THEORY></metadata><data><meanElements><EPOCH>2023-11-12T13:48:38.073888</EPOCH><MEAN_MOTION>14.36384606</MEAN_MOTION><ECCENTRICITY>.0002077</ECCENTRICITY><INCLINATION>86.4006</INCLINATION><RA_OF_ASC_NODE>25.9461</RA_OF_ASC_NODE><ARG_OF_PERICENTER>105.4672</ARG_OF_PERICENTER><MEAN_ANOMALY>254.6755</MEAN_ANOMALY></meanElements><tleParameters><EPHEMERIS_TYPE>0</EPHEMERIS_TYPE><CLASSIFICATION_TYPE>U</CLASSIFICATION_TYPE><NORAD_CAT_ID>24948</NORAD_CAT_ID><ELEMENT_SET_NO>999</ELEMENT_SET_NO><REV_AT_EPOCH>37018</REV_AT_EPOCH><BSTAR>.20891E-3</BSTAR><MEAN_MOTION_DOT>.631E-5</MEAN_MOTION_DOT><MEAN_MOTION_DDOT>0</MEAN_MOTION_DDOT></tleParameters></data></segment></body></omm>

</ndm>
